STARLINK-2295_new
1 18036C 21024BM  21326.18767872  .00002856  00000-0  19131-3 0  3263
2 18036  53.0521 172.9030 0002070  81.1440 167.0125 15.06404250    18
STARLINK-2295_old
1 28036C 21024BM  21325.12066379  .00006792  00000-0  45499-3 0  3258
2 28036  53.0522 177.6932 0002071  78.9251 139.5555 15.06395834    15
